NORAD_CAT_ID,OBJECT_NAME,OBJECT_TYPE,EPOCH,MEAN_MOTION,ECCENTRICITY,INCLINATION,RA_OF_ASC_NODE,ARG_OF_PERICENTER,MEAN_ANOMALY,BSTAR,MEAN_MOTION_DOT,MEAN_MOTION_DDOT,TLE_LINE0,TLE_LINE1,TLE_LINE2,SEMIMAJOR_AXIS,PERIOD,APOGEE,PERIGEE,DECAYED
53784.0,STARLINK-4687,PAYLOAD,2023-09-02 06:20:37,15.08832777,0.0002467,53.2106,81.6208,85.9048,274.2226,0.0005208,8.009e-05,0.0,0 STARLINK-4687,1 53784U 22111M   23245.26432870  .00008009  00000-0  52080-3 0  9997,2 53784  53.2106  81.6208 0002467  85.9048 274.2226 15.08832777 54084,6917.902,95.438,541.474,538.061,0.0
53784.0,STARLINK-4687,PAYLOAD,2023-09-02 12:42:09,15.08843961,0.0002003,53.214,80.4298,86.0172,274.1049,0.00021755,3.176e-05,0.0,0 STARLINK-4687,1 53784U 22111M   23245.52927949  .00003176  00000-0  21755-3 0  9997,2 53784  53.2140  80.4298 0002003  86.0172 274.1049 15.08843961 54937,6917.868,95.437,541.119,538.348,0.0
53784.0,STARLINK-4687,PAYLOAD,2023-09-02 20:39:05,15.08845484,0.0001532,53.2171,78.9426,88.198,271.9188,0.00022403,3.28e-05,0.0,0 STARLINK-4687,1 53784U 22111M   23245.86047819  .00003280  00000-0  22403-3 0  9990,2 53784  53.2171  78.9426 0001532  88.1980 271.9188 15.08845484 54988,6917.864,95.437,540.788,538.669,0.0
53784.0,STARLINK-4687,PAYLOAD,2023-09-03 18:54:29,15.08846613,0.000147,53.2173,74.78,89.4499,270.6662,0.00025627,3.794e-05,0.0,0 STARLINK-4687,1 53784U 22111M   23246.78783632  .00003794  00000-0  25627-3 0  9993,2 53784  53.2173  74.7800 0001470  89.4499 270.6662 15.08846613 54315,6917.86,95.437,540.742,538.708,0.0
53784.0,STARLINK-4687,PAYLOAD,2023-09-04 06:02:11,15.08839598,0.0001439,53.2172,72.6969,90.6074,269.5083,0.00025898,3.836e-05,0.0,0 STARLINK-4687,1 53784U 22111M   23247.25151865  .00003836  00000-0  25898-3 0  9990,2 53784  53.2172  72.6969 0001439  90.6074 269.5083 15.08839598 54380,6917.882,95.438,540.742,538.751,0.0
53784.0,STARLINK-4687,PAYLOAD,2023-09-04 21:56:02,15.08836214,0.000148,53.2176,69.7237,91.7004,268.4157,-1.3005e-05,-4.95e-06,0.0,0 STARLINK-4687,1 53784U 22111M   23247.91392170 -.00000495  00000-0 -13005-4 0  9997,2 53784  53.2176  69.7237 0001480  91.7004 268.4157 15.08836214 54483,6917.892,95.438,540.781,538.733,0.0
53784.0,STARLINK-4687,PAYLOAD,2023-09-05 12:14:30,15.08841492,0.0001553,53.218,67.0453,104.7184,255.3981,-5.0483e-05,-1.091e-05,0.0,0 STARLINK-4687,1 53784U 22111M   23248.51008040 -.00001091  00000-0 -50483-4 0  9998,2 53784  53.2180  67.0453 0001553 104.7184 255.3981 15.08841492 55388,6917.876,95.437,540.815,538.666,0.0
53784.0,STARLINK-4687,PAYLOAD,2023-09-05 20:11:26,15.08846951,0.0001511,53.2182,65.5586,105.4062,254.7098,1.9964e-05,3e-07,0.0,0 STARLINK-4687,1 53784U 22111M   23248.84127749  .00000030  00000-0  19964-4 0  9991,2 53784  53.2182  65.5586 0001511 105.4062 254.7098 15.08846951 54620,6917.859,95.437,540.769,538.679,0.0
53784.0,STARLINK-4687,PAYLOAD,2023-09-06 12:05:17,15.08840989,0.0001442,53.218,62.5858,103.0654,257.05,0.00015563,2.19e-05,0.0,0 STARLINK-4687,1 53784U 22111M   23249.50367898  .00002190  00000-0  15563-3 0  9995,2 53784  53.2180  62.5858 0001442 103.0654 257.0500 15.08840989 55531,6917.877,95.437,540.74,538.745,0.0
53784.0,STARLINK-4687,PAYLOAD,2023-09-06 20:02:13,15.08847697,0.0001349,53.2173,61.1012,94.8571,265.2575,0.00019116,2.756e-05,0.0,0 STARLINK-4687,1 53784U 22111M   23249.83487504  .00002756  00000-0  19116-3 0  9994,2 53784  53.2173  61.1012 0001349  94.8571 265.2575 15.08847697 55582,6917.857,95.437,540.655,538.789,0.0
53784.0,STARLINK-4687,PAYLOAD,2023-09-07 10:20:42,15.08838048,0.0001439,53.2173,58.4259,96.7168,263.3988,9.2903e-05,1.191e-05,0.0,0 STARLINK-4687,1 53784U 22111M   23250.43104372  .00001191  00000-0  92903-4 0  9999,2 53784  53.2173  58.4259 0001439  96.7168 263.3988 15.08838048 54864,6917.886,95.438,540.747,538.756,0.0
53784.0,STARLINK-4687,PAYLOAD,2023-09-07 11:56:05,15.08836009,0.000141,53.218,58.1284,96.4889,263.6263,3.5574e-05,2.78e-06,0.0,0 STARLINK-4687,1 53784U 22111M   23250.49728597  .00000278  00000-0  35574-4 0  9992,2 53784  53.2180  58.1284 0001410  96.4889 263.6263 15.08836009 55688,6917.893,95.438,540.733,538.782,0.0
53784.0,STARLINK-4687,PAYLOAD,2023-09-08 03:49:56,15.0884051,0.0001476,53.2179,55.1543,85.8846,274.2315,2.0576e-05,4e-07,0.0,0 STARLINK-4687,1 53784U 22111M   23251.15968438  .00000040  00000-0  20576-4 0  9999,2 53784  53.2179  55.1543 0001476  85.8846 274.2315 15.08840510 55787,6917.879,95.438,540.765,538.723,0.0
53784.0,STARLINK-4687,PAYLOAD,2023-09-08 18:08:24,15.08841046,0.0001404,53.2206,52.4801,96.9457,263.1695,8.3531e-05,1.042e-05,0.0,0 STARLINK-4687,1 53784U 22111M   23251.75584354  .00001042  00000-0  83531-4 0  9999,2 53784  53.2206  52.4801 0001404  96.9457 263.1695 15.08841046 55061,6917.877,95.437,540.713,538.771,0.0
53784.0,STARLINK-4687,PAYLOAD,2023-09-08 21:19:10,15.08846442,0.0001312,53.2192,51.8837,95.0597,265.0545,6.1701e-05,6.94e-06,0.0,0 STARLINK-4687,1 53784U 22111M   23251.88832015  .00000694  00000-0  61701-4 0  9990,2 53784  53.2192  51.8837 0001312  95.0597 265.0545 15.08846442 55891,6917.861,95.437,540.633,538.818,0.0
53784.0,STARLINK-4687,PAYLOAD,2023-09-09 11:37:39,15.08832895,0.0001287,53.2186,49.207,94.3533,265.7606,8.8065e-05,1.114e-05,0.0,0 STARLINK-4687,1 53784U 22111M   23252.48448965  .00001114  00000-0  88065-4 0  9994,2 53784  53.2186  49.2070 0001287  94.3533 265.7606 15.08832895 55170,6917.902,95.438,540.657,538.877,0.0
53784.0,STARLINK-4687,PAYLOAD,2023-09-09 17:59:11,15.08841954,0.0001409,53.2183,48.0166,91.0574,269.0579,0.00012389,1.684e-05,0.0,0 STARLINK-4687,1 53784U 22111M   23252.74944441  .00001684  00000-0  12389-3 0  9990,2 53784  53.2183  48.0166 0001409  91.0574 269.0579 15.08841954 55212,6917.874,95.437,540.714,538.765,0.0
53784.0,STARLINK-4687,PAYLOAD,2023-09-10 03:31:31,15.08837808,0.0001324,53.2182,46.2321,84.8358,275.2785,0.00012136,1.644e-05,0.0,0 STARLINK-4687,1 53784U 22111M   23253.14688757  .00001644  00000-0  12136-3 0  9996,2 53784  53.2182  46.2321 0001324  84.8358 275.2785 15.08837808 55277,6917.887,95.438,540.668,538.836,0.0
53784.0,STARLINK-4687,PAYLOAD,2023-09-11 03:22:17,15.08843211,0.0001285,53.2187,41.7733,83.6198,276.494,0.00010441,1.374e-05,0.0,0 STARLINK-4687,1 53784U 22111M   23254.14048556  .00001374  00000-0  10441-3 0  9991,2 53784  53.2187  41.7733 0001285  83.6198 276.4940 15.08843211 56232,6917.871,95.437,540.625,538.847,0.0
53784.0,STARLINK-4687,PAYLOAD,2023-09-11 16:05:22,15.08846379,0.0001309,53.2186,39.3927,87.1276,272.9866,7.7654e-05,9.48e-06,0.0,0 STARLINK-4687,1 53784U 22111M   23254.67040413  .00000948  00000-0  77654-4 0  9999,2 53784  53.2186  39.3927 0001309  87.1276 272.9866 15.08846379 55507,6917.861,95.437,540.631,538.82,0.0
53784.0,STARLINK-4687,PAYLOAD,2023-09-12 12:45:23,15.08839692,0.0001337,53.2187,35.5264,89.0069,271.1076,5.9882e-05,6.65e-06,0.0,0 STARLINK-4687,1 53784U 22111M   23255.53152769  .00000665  00000-0  59882-4 0  9992,2 53784  53.2187  35.5264 0001337  89.0069 271.1076 15.08839692 56440,6917.881,95.438,540.671,538.821,0.0
53784.0,STARLINK-4687,PAYLOAD,2023-09-12 17:31:32,15.0884932,0.0001391,53.2195,34.6322,95.3987,264.7164,6.1166e-05,6.86e-06,0.0,0 STARLINK-4687,1 53784U 22111M   23255.73024095  .00000686  00000-0  61166-4 0  9995,2 53784  53.2195  34.6322 0001391  95.3987 264.7164 15.08849320 56471,6917.852,95.437,540.679,538.755,0.0
53784.0,STARLINK-4687,PAYLOAD,2023-09-13 12:36:10,15.08848505,0.0001477,53.2186,31.0659,96.8497,263.2663,0.0001115,1.487e-05,0.0,0 STARLINK-4687,1 53784U 22111M   23256.52511831  .00001487  00000-0  11150-3 0  9999,2 53784  53.2186  31.0659 0001477  96.8497 263.2663 15.08848505 56597,6917.854,95.437,540.741,538.698,0.0
53784.0,STARLINK-4687,PAYLOAD,2023-09-13 15:46:56,15.0885212,0.0001456,53.2195,30.4711,96.2981,263.8177,9.6842e-05,1.254e-05,0.0,0 STARLINK-4687,1 53784U 22111M   23256.65759627  .00001254  00000-0  96842-4 0  9994,2 53784  53.2195  30.4711 0001456  96.2981 263.8177 15.08852120 56615,6917.843,95.437,540.716,538.701,0.0
53784.0,STARLINK-4687,PAYLOAD,2023-09-14 12:26:58,15.08829521,0.0001428,53.219,26.6054,94.6223,265.4932,-1.5615e-05,-5.36e-06,0.0,0 STARLINK-4687,1 53784U 22111M   23257.51873758 -.00000536  00000-0 -15615-4 0  9995,2 53784  53.2190  26.6054 0001428  94.6223 265.4932 15.08829521 56747,6917.912,95.438,540.765,538.79,0.0
53784.0,STARLINK-4687,PAYLOAD,2023-09-14 17:13:08,15.08828849,0.0001341,53.2188,25.7138,87.707,272.4075,-5.332e-05,-1.136e-05,0.0,0 STARLINK-4687,1 53784U 22111M   23257.71746031 -.00001136  00000-0 -53320-4 0  9992,2 53784  53.2188  25.7138 0001341  87.7070 272.4075 15.08828849 55965,6917.914,95.438,540.707,538.852,0.0
53784.0,STARLINK-4687,PAYLOAD,2023-09-15 01:10:03,15.08834943,0.000128,53.2188,24.2279,85.6527,274.4611,-3.9519e-06,-3.51e-06,0.0,0 STARLINK-4687,1 53784U 22111M   23258.04865630 -.00000351  00000-0 -39519-5 0  9999,2 53784  53.2188  24.2279 0001280  85.6527 274.4611 15.08834943 56018,6917.896,95.438,540.646,538.875,0.0
53784.0,STARLINK-4687,PAYLOAD,2023-09-15 13:53:08,15.08848031,0.0001286,53.2177,21.8496,70.6737,289.4394,0.00021417,3.123e-05,0.0,0 STARLINK-4687,1 53784U 22111M   23258.57856875  .00003123  00000-0  21417-3 0  9992,2 53784  53.2177  21.8496 0001286  70.6737 289.4394 15.08848031 56908,6917.856,95.437,540.61,538.831,0.0
53784.0,STARLINK-4687,PAYLOAD,2023-09-15 17:03:54,15.08852986,0.0001305,53.2182,21.2542,85.5108,274.6033,0.00028779,4.297e-05,0.0,0 STARLINK-4687,1 53784U 22111M   23258.71104582  .00004297  00000-0  28779-3 0  9990,2 53784  53.2182  21.2542 0001305  85.5108 274.6033 15.08852986 56112,6917.841,95.437,540.608,538.803,0.0
53784.0,STARLINK-4687,PAYLOAD,2023-09-16 01:00:50,15.08845564,0.000129,53.2186,19.7632,70.1195,289.9936,0.00012768,1.745e-05,0.0,0 STARLINK-4687,1 53784U 22111M   23259.04224653  .00001745  00000-0  12768-3 0  9995,2 53784  53.2186  19.7632 0001290  70.1195 289.9936 15.08845564 56167,6917.863,95.437,540.621,538.836,0.0
